STARLINK-33845          
1 63495U 25071C   26068.50389270  .00022854  00000+0  78173-3 0  9997
2 63495  53.1585 140.6330 0001268  85.2768 274.8377 15.30185595 52722
2025-313BD              
1 67299U 25313BD  26068.62968741  .00081010  00000+0  27634-2 0  9995
2 67299  97.3970 145.2850 0007287 333.4514  26.6352 15.30002360 10838
